ONEWEB-0412             
1 50489U 21132W   25330.13479451  .00000045  00000+0  81228-4 0  9995
2 50489  87.9201  15.7875 0002066 105.2208 254.9153 13.18685148194895
ONEWEB-0413             
1 50490U 21132X   25330.13975536  .00000062  00000+0  12367-3 0  9998
2 50490  87.9192  15.8008 0002133 101.9741 258.1630 13.18687205194831
ONEWEB-0414             
1 50491U 21132Y   25330.12489637  .00000029  00000+0  42025-4 0  9998
2 50491  87.9202  15.7654 0001845 105.0328 255.1008 13.18684607194867
ONEWEB-0417             
1 50492U 21132Z   25330.13314420 -.00000034  00000+0 -11864-3 0  9991
2 50492  87.9203  15.7976 0001600  99.1051 261.0262 13.18684389194844
ONEWEB-0418             
1 50493U 21132AA  25330.14289528 -.00000022  00000+0 -88395-4 0  9994
2 50493  87.9201  15.7803 0001325 102.0569 258.0711 13.18688499194902
ONEWEB-0419             
1 50494U 21132AB  25330.16118609  .00000083  00000+0  17827-3 0  9994
2 50494  87.9201  15.7768 0001563  90.5477 269.5834 13.18684679194826
ONEWEB-0420             
1 50495U 21132AC  25330.12655000  .00000013  00000+0  91599-6 0  9996
2 50495  87.9202  15.7953 0001981  97.2901 262.8456 13.18688699194815
ONEWEB-0421             
1 50496U 21132AD  25330.11993759  .00000021  00000+0  21086-4 0  9993
2 50496  87.9199  15.7895 0001927 108.5196 251.6146 13.18688660194852
ONEWEB-0424             
1 50497U 21132AE  25330.15623131 -.00000263  00000+0 -70070-3 0  9998
2 50497  87.9199  15.7782 0001675  85.6355 274.4968 13.18686197194881
ONEWEB-0426             
1 50498U 21132AF  25330.19252250  .00000050  00000+0  95054-4 0  9995
2 50498  87.9201  15.7616 0001645 121.9312 238.1981 13.18684520194831
ONEWEB-0427             
1 50499U 21132AG  25330.15459660  .00000007  00000+0 -15695-4 0  9992
2 50499  87.9198  15.7578 0001588  98.9681 261.1631 13.18685326194857
ONEWEB-0429             
1 50500U 21132AH  25330.14138940  .00000041  00000+0  70625-4 0  9990
2 50500  87.9200  15.7920 0001964  95.4196 264.7160 13.18684806194821
ONEWEB-0430             
1 50501U 21132AJ  25330.12984727  .00000031  00000+0  46055-4 0  9990
2 50501  87.9203  15.7895 0001881  89.3959 270.7389 13.18685119194865
ONEWEB-0432             
1 50502U 21132AK  25330.16165013  .00000090  00000+0  19567-3 0  9996
2 50502  87.9195  15.7562 0001005  77.9653 282.1591 13.18675310194829
ONEWEB-0440             
1 50503U 21132AL  25330.14963385  .00000070  00000+0  14424-3 0  9998
2 50503  87.9199  15.7759 0002160 104.6142 255.5230 13.18684207194814
ONEWEB-0450             
1 50504U 21132AM  25330.14319186  .00000046  00000+0  82779-4 0  9995
2 50504  87.9194  15.7998 0002042  92.3398 267.7968 13.18686919194848
ONEWEB-0410             
1 51622U 22012A   25330.16395433  .00000066  00000+0  13796-3 0  9990
2 51622  87.9135  46.2137 0001088 156.6591 203.4590 13.17647847186965
