[{"OBJECT_NAME":"ONEWEB-0412","OBJECT_ID":"2021-132W","EPOCH":"2025-11-26T03:14:06.245664","MEAN_MOTION":13.18685148,"ECCENTRICITY":0.0002066,"INCLINATION":87.9201,"RA_OF_ASC_NODE":15.7875,"ARG_OF_PERICENTER":105.2208,"MEAN_ANOMALY":254.9153,"EPHEMERIS_TYPE":0,"CLASSIFICATION_TYPE":"U","NORAD_CAT_ID":50489,"ELEMENT_SET_NO":999,"REV_AT_EPOCH":19489,"BSTAR":8.1228e-5,"MEAN_MOTION_DOT":4.5e-7,"MEAN_MOTION_DDOT":0},{"OBJECT_NAME":"ONEWEB-0413","OBJECT_ID":"2021-132X","EPOCH":"2025-11-26T03:21:14.863104","MEAN_MOTION":13.18687205,"ECCENTRICITY":0.0002133,"INCLINATION":87.9192,"RA_OF_ASC_NODE":15.8008,"ARG_OF_PERICENTER":101.9741,"MEAN_ANOMALY":258.163,"EPHEMERIS_TYPE":0,"CLASSIFICATION_TYPE":"U","NORAD_CAT_ID":50490,"ELEMENT_SET_NO":999,"REV_AT_EPOCH":19483,"BSTAR":0.00012367,"MEAN_MOTION_DOT":6.2e-7,"MEAN_MOTION_DDOT":0},{"OBJECT_NAME":"ONEWEB-0414","OBJECT_ID":"2021-132Y","EPOCH":"2025-11-26T02:59:51.046368","MEAN_MOTION":13.18684607,"ECCENTRICITY":0.0001845,"INCLINATION":87.9202,"RA_OF_ASC_NODE":15.7654,"ARG_OF_PERICENTER":105.0328,"MEAN_ANOMALY":255.1008,"EPHEMERIS_TYPE":0,"CLASSIFICATION_TYPE":"U","NORAD_CAT_ID":50491,"ELEMENT_SET_NO":999,"REV_AT_EPOCH":19486,"BSTAR":4.2025e-5,"MEAN_MOTION_DOT":2.9e-7,"MEAN_MOTION_DDOT":0},{"OBJECT_NAME":"ONEWEB-0417","OBJECT_ID":"2021-132Z","EPOCH":"2025-11-26T03:11:43.658880","MEAN_MOTION":13.18684389,"ECCENTRICITY":0.00016,"INCLINATION":87.9203,"RA_OF_ASC_NODE":15.7976,"ARG_OF_PERICENTER":99.1051,"MEAN_ANOMALY":261.0262,"EPHEMERIS_TYPE":0,"CLASSIFICATION_TYPE":"U","NORAD_CAT_ID":50492,"ELEMENT_SET_NO":999,"REV_AT_EPOCH":19484,"BSTAR":-0.00011864,"MEAN_MOTION_DOT":-3.4e-7,"MEAN_MOTION_DDOT":0},{"OBJECT_NAME":"ONEWEB-0418","OBJECT_ID":"2021-132AA","EPOCH":"2025-11-26T03:25:46.152192","MEAN_MOTION":13.18688499,"ECCENTRICITY":0.0001325,"INCLINATION":87.9201,"RA_OF_ASC_NODE":15.7803,"ARG_OF_PERICENTER":102.0569,"MEAN_ANOMALY":258.0711,"EPHEMERIS_TYPE":0,"CLASSIFICATION_TYPE":"U","NORAD_CAT_ID":50493,"ELEMENT_SET_NO":999,"REV_AT_EPOCH":19490,"BSTAR":-8.8395e-5,"MEAN_MOTION_DOT":-2.2e-7,"MEAN_MOTION_DDOT":0},{"OBJECT_NAME":"ONEWEB-0419","OBJECT_ID":"2021-132AB","EPOCH":"2025-11-26T03:52:06.478176","MEAN_MOTION":13.18684679,"ECCENTRICITY":0.0001563,"INCLINATION":87.9201,"RA_OF_ASC_NODE":15.7768,"ARG_OF_PERICENTER":90.5477,"MEAN_ANOMALY":269.5834,"EPHEMERIS_TYPE":0,"CLASSIFICATION_TYPE":"U","NORAD_CAT_ID":50494,"ELEMENT_SET_NO":999,"REV_AT_EPOCH":19482,"BSTAR":0.00017827,"MEAN_MOTION_DOT":8.3e-7,"MEAN_MOTION_DDOT":0},{"OBJECT_NAME":"ONEWEB-0420","OBJECT_ID":"2021-132AC","EPOCH":"2025-11-26T03:02:13.920000","MEAN_MOTION":13.18688699,"ECCENTRICITY":0.0001981,"INCLINATION":87.9202,"RA_OF_ASC_NODE":15.7953,"ARG_OF_PERICENTER":97.2901,"MEAN_ANOMALY":262.8456,"EPHEMERIS_TYPE":0,"CLASSIFICATION_TYPE":"U","NORAD_CAT_ID":50495,"ELEMENT_SET_NO":999,"REV_AT_EPOCH":19481,"BSTAR":9.1599e-7,"MEAN_MOTION_DOT":1.3e-7,"MEAN_MOTION_DDOT":0},{"OBJECT_NAME":"ONEWEB-0421","OBJECT_ID":"2021-132AD","EPOCH":"2025-11-26T02:52:42.607776","MEAN_MOTION":13.1868866,"ECCENTRICITY":0.0001927,"INCLINATION":87.9199,"RA_OF_ASC_NODE":15.7895,"ARG_OF_PERICENTER":108.5196,"MEAN_ANOMALY":251.6146,"EPHEMERIS_TYPE":0,"CLASSIFICATION_TYPE":"U","NORAD_CAT_ID":50496,"ELEMENT_SET_NO":999,"REV_AT_EPOCH":19485,"BSTAR":2.1086e-5,"MEAN_MOTION_DOT":2.1e-7,"MEAN_MOTION_DDOT":0},{"OBJECT_NAME":"ONEWEB-0424","OBJECT_ID":"2021-132AE","EPOCH":"2025-11-26T03:44:58.385184","MEAN_MOTION":13.18686197,"ECCENTRICITY":0.0001675,"INCLINATION":87.9199,"RA_OF_ASC_NODE":15.7782,"ARG_OF_PERICENTER":85.6355,"MEAN_ANOMALY":274.4968,"EPHEMERIS_TYPE":0,"CLASSIFICATION_TYPE":"U","NORAD_CAT_ID":50497,"ELEMENT_SET_NO":999,"REV_AT_EPOCH":19488,"BSTAR":-0.0007007,"MEAN_MOTION_DOT":-2.63e-6,"MEAN_MOTION_DDOT":0},{"OBJECT_NAME":"ONEWEB-0426","OBJECT_ID":"2021-132AF","EPOCH":"2025-11-26T04:37:13.944000","MEAN_MOTION":13.1868452,"ECCENTRICITY":0.0001645,"INCLINATION":87.9201,"RA_OF_ASC_NODE":15.7616,"ARG_OF_PERICENTER":121.9312,"MEAN_ANOMALY":238.1981,"EPHEMERIS_TYPE":0,"CLASSIFICATION_TYPE":"U","NORAD_CAT_ID":50498,"ELEMENT_SET_NO":999,"REV_AT_EPOCH":19483,"BSTAR":9.5054e-5,"MEAN_MOTION_DOT":5.0e-7,"MEAN_MOTION_DDOT":0},{"OBJECT_NAME":"ONEWEB-0427","OBJECT_ID":"2021-132AG","EPOCH":"2025-11-26T03:42:37.146240","MEAN_MOTION":13.18685326,"ECCENTRICITY":0.0001588,"INCLINATION":87.9198,"RA_OF_ASC_NODE":15.7578,"ARG_OF_PERICENTER":98.9681,"MEAN_ANOMALY":261.1631,"EPHEMERIS_TYPE":0,"CLASSIFICATION_TYPE":"U","NORAD_CAT_ID":50499,"ELEMENT_SET_NO":999,"REV_AT_EPOCH":19485,"BSTAR":-1.5695e-5,"MEAN_MOTION_DOT":7.0e-8,"MEAN_MOTION_DDOT":0},{"OBJECT_NAME":"ONEWEB-0429","OBJECT_ID":"2021-132AH","EPOCH":"2025-11-26T03:23:36.044160","MEAN_MOTION":13.18684806,"ECCENTRICITY":0.0001964,"INCLINATION":87.92,"RA_OF_ASC_NODE":15.792,"ARG_OF_PERICENTER":95.4196,"MEAN_ANOMALY":264.716,"EPHEMERIS_TYPE":0,"CLASSIFICATION_TYPE":"U","NORAD_CAT_ID":50500,"ELEMENT_SET_NO":999,"REV_AT_EPOCH":19482,"BSTAR":7.0625e-5,"MEAN_MOTION_DOT":4.1e-7,"MEAN_MOTION_DDOT":0},{"OBJECT_NAME":"ONEWEB-0430","OBJECT_ID":"2021-132AJ","EPOCH":"2025-11-26T03:06:58.804128","MEAN_MOTION":13.18685119,"ECCENTRICITY":0.0001881,"INCLINATION":87.9203,"RA_OF_ASC_NODE":15.7895,"ARG_OF_PERICENTER":89.3959,"MEAN_ANOMALY":270.7389,"EPHEMERIS_TYPE":0,"CLASSIFICATION_TYPE":"U","NORAD_CAT_ID":50501,"ELEMENT_SET_NO":999,"REV_AT_EPOCH":19486,"BSTAR":4.6055e-5,"MEAN_MOTION_DOT":3.1e-7,"MEAN_MOTION_DDOT":0},{"OBJECT_NAME":"ONEWEB-0432","OBJECT_ID":"2021-132AK","EPOCH":"2025-11-26T03:52:46.571232","MEAN_MOTION":13.1867531,"ECCENTRICITY":0.0001005,"INCLINATION":87.9195,"RA_OF_ASC_NODE":15.7562,"ARG_OF_PERICENTER":77.9653,"MEAN_ANOMALY":282.1591,"EPHEMERIS_TYPE":0,"CLASSIFICATION_TYPE":"U","NORAD_CAT_ID":50502,"ELEMENT_SET_NO":999,"REV_AT_EPOCH":19482,"BSTAR":0.00019567,"MEAN_MOTION_DOT":9.0e-7,"MEAN_MOTION_DDOT":0},{"OBJECT_NAME":"ONEWEB-0440","OBJECT_ID":"2021-132AL","EPOCH":"2025-11-26T03:35:28.364640","MEAN_MOTION":13.18684207,"ECCENTRICITY":0.000216,"INCLINATION":87.9199,"RA_OF_ASC_NODE":15.7759,"ARG_OF_PERICENTER":104.6142,"MEAN_ANOMALY":255.523,"EPHEMERIS_TYPE":0,"CLASSIFICATION_TYPE":"U","NORAD_CAT_ID":50503,"ELEMENT_SET_NO":999,"REV_AT_EPOCH":19481,"BSTAR":0.00014424,"MEAN_MOTION_DOT":7.0e-7,"MEAN_MOTION_DDOT":0},{"OBJECT_NAME":"ONEWEB-0450","OBJECT_ID":"2021-132AM","EPOCH":"2025-11-26T03:26:11.776704","MEAN_MOTION":13.18686919,"ECCENTRICITY":0.0002042,"INCLINATION":87.9194,"RA_OF_ASC_NODE":15.7998,"ARG_OF_PERICENTER":92.3398,"MEAN_ANOMALY":267.7968,"EPHEMERIS_TYPE":0,"CLASSIFICATION_TYPE":"U","NORAD_CAT_ID":50504,"ELEMENT_SET_NO":999,"REV_AT_EPOCH":19484,"BSTAR":8.2779e-5,"MEAN_MOTION_DOT":4.6e-7,"MEAN_MOTION_DDOT":0},{"OBJECT_NAME":"ONEWEB-0410","OBJECT_ID":"2022-012A","EPOCH":"2025-11-26T03:56:05.654112","MEAN_MOTION":13.17647847,"ECCENTRICITY":0.0001088,"INCLINATION":87.9135,"RA_OF_ASC_NODE":46.2137,"ARG_OF_PERICENTER":156.6591,"MEAN_ANOMALY":203.459,"EPHEMERIS_TYPE":0,"CLASSIFICATION_TYPE":"U","NORAD_CAT_ID":51622,"ELEMENT_SET_NO":999,"REV_AT_EPOCH":18696,"BSTAR":0.00013796,"MEAN_MOTION_DOT":6.6e-7,"MEAN_MOTION_DDOT":0}]
